SatCatId,ObjectName,LaunchYear,OrbitalPeriod,LaunchMass,StatusCode,Inclination,Status,UcsData,OrbitClassEstimated,LaunchSiteCountry,Owner,UseType,Purpose,LaunchVehicleClass,TLE1,TLE2,MeanMotion,Eccentricity,OrbitClass
49312,ONEWEB-0386,2021,109.03,148.0,+,87.91,Active,1,LEO,Russia,UK,Commercial,Communications,Soyuz,1 49312U 21090AK  24082.49696015  .00000032  00000+0  46284-4 0  9999,2 49312  87.9126  76.9676 0002229  83.9224 276.2164 13.20773411122011,13.20773411,0.0002229,LEO
49313,ONEWEB-0387,2021,109.03,148.0,+,87.91,Active,1,LEO,Russia,UK,Commercial,Communications,Soyuz,1 49313U 21090AL  24082.48118273  .00000152  00000+0  34198-3 0  9997,2 49313  87.9136  77.0272 0002233  95.0721 265.0667 13.20770485122010,13.20770485,0.0002233,LEO
49314,ONEWEB-0388,2021,109.11,148.0,+,87.91,Active,1,LEO,Russia,UK,Commercial,Communications,Soyuz,1 49314U 21090AM  24082.63352111  .00000081  00000+0  16891-3 0  9997,2 49314  87.9107 107.5123 0002029  87.6445 272.4920 13.19726180120008,13.1972618,0.0002029,LEO
49324,SSS-2A,2021,91.59,10.0,+,97.4,Active,1,LEO,PRC,China,Commercial,Earth Observation,Long March,1 49324U 21091K   24082.84261639  .00303070  00000+0  21896-2 0  9990,2 49324  97.4033 284.1302 0005771 326.2623  33.8273 15.72596935136103,15.72596935,0.0005771,LEO
49330,SHIJIAN-21 (SJ-21),2021,1434.89,5000.0,+,9.65,Active,1,GSO,PRC,China,Government,Technology Development,Long March,1 49330U 21094A   24082.50674802 -.00000369  00000+0  00000+0 0  9990,2 49330   9.6503  45.8721 0079622  29.9371  46.8244  1.00356181  9066,1.00356181,0.0079622,GSO
49332,SES-17,2021,1436.09,6411.0,+,0.02,Active,1,GSO,French Guiana,SES,Commercial,Communications,Ariane,1 49332U 21095A   24081.22132816 -.00000284  00000+0  00000+0 0  9991,2 49332   0.0165 126.2503 0000633 219.0524 206.4830  1.00272107  9630,1.00272107,6.33e-05,GEO
49333,SYRACUSE 4A,2021,1436.12,3852.0,+,0.02,Active,1,GSO,French Guiana,France,Military,Communications,Ariane,1 49333U 21095B   24082.53243841  .00000127  00000+0  00000+0 0  9993,2 49333   0.0221 182.0689 0001544 179.6928  55.9380  1.00269699  9808,1.00269699,0.0001544,GEO
49336,QZS-1R,2021,1435.83,4100.0,+,35.76,Active,1,GSO,Japan,Japan,Government,Navigation (Global or Regional Positioning),H2A,1 49336U 21096A   24081.91855010 -.00000239  00000+0  00000+0 0  9990,2 49336  35.7640  91.8481 0750095 269.7534 282.8842  1.00289901  8805,1.00289901,0.0750095,GSO
49338,JILIN-1 GAOFEN 2F,2021,94.72,230.0,+,97.58,Active,1,LEO,PRC,China,Commercial,Earth Observation,Kuaizhou,1 49338U 21097A   24082.85101923  .00016705  00000+0  77018-3 0  9995,2 49338  97.5776 195.6439 0010698 115.6479 244.5862 15.20283932132691,15.20283932,0.0010698,LEO
49383,YAOGAN-32 2A,2021,98.56,-1.0,+,98.19,Active,1,LEO,PRC,China,Military,Earth Observation,Long March,1 49383U 21099A   24082.86831356  .00002223  00000+0  46170-3 0  9993,2 49383  98.1868 207.5534 0000786 111.1051 249.0233 14.61104937127016,14.61104937,7.86e-05,LEO
49384,YAOGAN-32 2B,2021,98.56,-1.0,+,98.19,Active,1,LEO,PRC,China,Military,Earth Observation,Long March,1 49384U 21099B   24082.86819931  .00002221  00000+0  46131-3 0  9994,2 49384  98.1882 207.6856 0001028 106.3148 253.8166 14.61106264127017,14.61106264,0.0001028,LEO
49387,SDGSAT 1,2021,94.75,500.0,+,97.38,Active,1,LEO,PRC,China,Government,Earth Observation,Long March,1 49387U 21100A   24082.85562488  .00006982  00000+0  32942-3 0  9994,2 49387  97.3763 143.2419 0000476  65.6331 294.4954 15.19766155131944,15.19766155,4.76e-05,LEO
49390,YAOGAN-35 A,2021,94.55,300.0,+,35.0,Active,1,LEO,PRC,China,Military,Earth Observation,Long March,1 49390U 21101A   24082.91105978  .00016506  00000+0  68539-3 0  9997,2 49390  34.9966   6.8722 0008473 264.7463  95.2284 15.22958374132386,15.22958374,0.0008473,LEO
49391,YAOGAN-35 B,2021,94.48,300.0,+,34.99,Active,1,LEO,PRC,China,Military,Earth Observation,Long March,1 49391U 21101B   24082.82877171  .00026075  00000+0  10413-2 0  9998,2 49391  34.9947   7.1807 0009206 318.7000  41.3018 15.24190598132369,15.24190598,0.0009206,LEO
49393,YAOGAN-35 C,2021,94.42,-1.0,+,35.0,Active,0,LEO,PRC,China,Unknown,Unknown,Unknown,1 49393U 21101D   24082.87075590  .00026670  00000+0  10324-2 0  9992,2 49393  35.0018   5.7531 0011107 196.7417 163.2933 15.25206797132404,15.25206797,0.0011107,LEO
49395,ASTERISC,2021,94.8,110.0,+,97.45,Active,1,LEO,Japan,Japan,Government,Technology Development,H2A,1 49395U 21102A   24082.09720976  .00042977  00000+0  20469-2 0  9993,2 49395  97.4465 134.5238 0012639 165.8839 194.2751 15.18928461130057,15.18928461,0.0012639,LEO
49396,TEIKYOSAT-4 (OORURI),2021,95.76,52.0,+,97.47,Active,1,LEO,Japan,Japan,Civil,Technology Development,H2A,1 49396U 21102B   24082.55846681  .00003810  00000+0  28163-3 0  9990,2 49396  97.4706 130.5172 0013115 207.0386 153.0158 15.03719762129738,15.03719762,0.0013115,LEO
49397,RAISE 2,2021,95.58,4.0,+,97.43,Active,1,LEO,Japan,Japan,Civil,Technology Development,H2A,1 49397U 21102C   24082.60531300  .00008735  00000+0  59223-3 0  9998,2 49397  97.4326 129.1372 0010889 234.1162 125.9055 15.06630014129831,15.06630014,0.0010889,LEO
49399,Z-SAT,2021,95.53,46.0,+,97.44,Active,1,LEO,Japan,Japan,Commercial,Technology Development,H2A,1 49399U 21102E   24082.87311753  .00006515  00000+0  43297-3 0  9995,2 49399  97.4441 132.1930 0020692 189.7307 170.3523 15.07340885129989,15.07340885,0.0020692,LEO
49400,HIBARI,2021,95.34,55.0,+,97.44,Active,1,LEO,Japan,Japan,Civil,Technology Development,H2A,1 49400U 21102F   24082.59509278  .00010012  00000+0  61178-3 0  9993,2 49400  97.4423 133.2304 0018557 178.7729 181.3550 15.10321970130041,15.1032197,0.0018557,LEO
49401,DRUMS,2021,95.51,-1.0,+,97.44,Active,0,LEO,Japan,Japan,Unknown,Unknown,Unknown,1 49401U 21102G   24082.59392194  .00007146  00000+0  46961-3 0  9998,2 49401  97.4429 132.3104 0019820 180.9693 179.1501 15.07736648129974,15.07736648,0.001982,LEO
49402,KOSEN-1,2021,95.37,3.0,+,97.44,Active,1,LEO,Japan,Japan,Civil,Technology Development,H2A,1 49402U 21102H   24082.08302965  .00010810  00000+0  66627-3 0  9993,2 49402  97.4367 132.5807 0019666 177.6835 182.4489 15.09966698129993,15.09966698,0.0019666,LEO
49408,STARLINK-3151,2021,95.44,260.0,+,53.22,Active,1,LEO,USA,USA,Commercial,Communications,Falcon,1 49408U 21104A   24082.72938255  .00006913  00000+0  45178-3 0  9996,2 49408  53.2168 207.6933 0001672  87.8530 272.2653 15.08860746131499,15.08860746,0.0001672,LEO
49409,STARLINK-3075,2021,95.44,260.0,+,53.22,Active,1,LEO,USA,USA,Commercial,Communications,Falcon,1 49409U 21104B   24082.74409981  .00015977  00000+0  10187-2 0  9999,2 49409  53.2156 207.6094 0001591  68.9681 291.1481 15.08874072131498,15.08874072,0.0001591,LEO
49410,STARLINK-3147,2021,95.44,260.0,+,53.22,Active,1,LEO,USA,USA,Commercial,Communications,Falcon,1 49410U 21104C   24082.60522218  .00004172  00000+0  27998-3 0  9999,2 49410  53.2160 208.2447 0001654  77.2865 282.8312 15.08853525130377,15.08853525,0.0001654,LEO
49411,STARLINK-3162,2021,95.44,260.0,+,53.22,Active,1,LEO,USA,USA,Commercial,Communications,Falcon,1 49411U 21104D   24082.59783056  .00002184  00000+0  15523-3 0  9999,2 49411  53.2159 198.2693 0001044  96.9812 263.1299 15.08841465130512,15.08841465,0.0001044,LEO
49412,STARLINK-3144,2021,95.44,260.0,+,53.22,Active,1,LEO,USA,USA,Commercial,Communications,Falcon,1 49412U 21104E   24082.74043628  .00000319  00000+0  38136-4 0  9995,2 49412  53.2155 207.6287 0001507  85.6502 274.4663 15.08834291131495,15.08834291,0.0001507,LEO
49413,STARLINK-3157,2021,95.43,260.0,+,53.22,Active,1,LEO,USA,USA,Commercial,Communications,Falcon,1 49413U 21104F   24082.59509856  .00004424  00000+0  29576-3 0  9997,2 49413  53.2171 198.2910 0001619  90.3891 269.7287 15.08856905131608,15.08856905,0.0001619,LEO
49414,STARLINK-3146,2021,95.44,260.0,+,53.22,Active,1,LEO,USA,USA,Commercial,Communications,Falcon,1 49414U 21104G   24082.73305274  .00007748  00000+0  50397-3 0  9999,2 49414  53.2163 207.6611 0001195 104.2870 255.8255 15.08869108131491,15.08869108,0.0001195,LEO
49415,STARLINK-3159,2021,95.44,260.0,+,53.22,Active,1,LEO,USA,USA,Commercial,Communications,Falcon,1 49415U 21104H   24082.59046512  .00012285  00000+0  78796-3 0  9996,2 49415  53.2166 198.3050 0001785  99.2503 260.8691 15.08871709130500,15.08871709,0.0001785,LEO
49416,STARLINK-3133,2021,95.44,260.0,+,53.21,Active,1,LEO,USA,USA,Commercial,Communications,Falcon,1 49416U 21104J   24082.72571406  .00014292  00000+0  91391-3 0  9993,2 49416  53.2150 207.6949 0001343  83.7833 276.3312 15.08853173131495,15.08853173,0.0001343,LEO
49417,STARLINK-3154,2021,95.44,260.0,+,53.22,Active,1,LEO,USA,USA,Commercial,Communications,Falcon,1 49417U 21104K   24082.61986705  .00003018  00000+0  20762-3 0  9992,2 49417  53.2170 197.8269 0001278  86.8432 273.2706 15.08841326131624,15.08841326,0.0001278,LEO
49418,STARLINK-3111,2021,95.43,260.0,+,53.21,Active,1,LEO,USA,USA,Commercial,Communications,Falcon,1 49418U 21104L   24082.65578100  .00006029  00000+0  39637-3 0  9999,2 49418  53.2158 208.0135 0001279  89.9606 270.1533 15.08859372131484,15.08859372,0.0001279,LEO
49419,STARLINK-3120,2021,95.44,260.0,+,53.22,Active,1,LEO,USA,USA,Commercial,Communications,Falcon,1 49419U 21104M   24082.57850055  .00004099  00000+0  27537-3 0  9994,2 49419  53.2159 208.3569 0001453  76.3650 283.7504 15.08854181130360,15.08854181,0.0001453,LEO
49420,STARLINK-3110,2021,95.44,260.0,+,53.22,Active,1,LEO,USA,USA,Commercial,Communications,Falcon,1 49420U 21104N   24082.58587352  .00002253  00000+0  15965-3 0  9996,2 49420  53.2176 208.3279 0001492  78.6762 281.4398 15.08835577130365,15.08835577,0.0001492,LEO
49421,STARLINK-3112,2021,95.44,260.0,+,53.22,Active,1,LEO,USA,USA,Commercial,Communications,Falcon,1 49421U 21104P   24082.61896580  .00004196  00000+0  28152-3 0  9997,2 49421  53.2158 207.9813 0001380  94.2474 265.8675 15.08848987131459,15.08848987,0.000138,LEO
